OBJECT_NAME,OBJECT_ID,EPOCH,MEAN_MOTION,ECCENTRICITY,INCLINATION,RA_OF_ASC_NODE,ARG_OF_PERICENTER,MEAN_ANOMALY,EPHEMERIS_TYPE,CLASSIFICATION_TYPE,NORAD_CAT_ID,ELEMENT_SET_NO,REV_AT_EPOCH,BSTAR,MEAN_MOTION_DOT,MEAN_MOTION_DDOT
PERSEUS-M1,2014-033AF,2026-06-16T18:26:42.504864,14.95629727,.0010343,97.9641,111.8934,302.9709,57.0516,0,U,40039,999,65057,.11414E-3,.1208E-4,0
POLYITAN-1,2014-033AJ,2026-06-16T18:59:22.577856,15.33245199,.0008614,98.0938,194.0149,142.4078,217.7766,0,U,40042,999,65353,.47987E-3,.15356E-3,0
TIGRISAT,2014-033AK,2026-06-16T08:59:38.107968,14.85160382,.00506092,97.7829,317.4045,77.8381,282.8497,0,U,40043,999,64550,.21114101E-3,.1794E-4,0
AEROCUBE 6A,2014-033AM,2026-06-16T10:08:18.015936,14.98103799,.00389785,97.7241,334.3787,20.7070,339.5721,0,U,40045,999,64650,.40126971E-3,.4765E-4,0
AEROCUBE 6B,2014-033AN,2026-06-16T10:12:43.595712,14.99564253,.00383599,97.7239,334.1705,11.9853,348.2274,0,U,40046,999,64664,.35054987E-3,.4315E-4,0
CANX-4,2014-034C,2026-06-16T14:40:32.856096,14.81263782,.0013211,98.3123,42.9035,18.8491,341.3206,0,U,40055,999,64444,.10412E-3,.755E-5,0
CANX-5,2014-034D,2026-06-16T21:07:23.255328,14.81281507,.00132,98.3124,43.2255,18.2211,341.9470,0,U,40056,999,63529,.10512E-3,.763E-5,0
UKUBE-1,2014-037F,2026-06-16T13:45:29.511072,15.13544703,.0002583,98.4228,170.7806,133.5977,226.5466,0,U,40074,999,64846,.37046E-3,.6564E-4,0
BRITE-PL2 (HEWELIUSZ),2014-049B,2026-06-16T07:14:54.064032,14.94590679,.0015251,97.9097,279.2951,111.1081,249.1771,0,U,40119,999,64131,.13881E-3,.1445E-4,0
AEROCUBE 5C,2015-058B,2026-06-16T13:36:58.695264,14.91451378,.0130707,64.7678,264.5188,63.5118,297.9330,0,U,40965,999,36556,.16972E-3,.1823E-4,0
AEROCUBE 7,2015-058C,2026-06-16T13:34:14.867904,14.95722382,.0120447,64.7621,246.7636,61.9442,299.3790,0,U,40966,999,36586,.21829E-3,.2637E-4,0
FOX-1A (AO-85),2015-058D,2026-06-16T16:21:48.722688,14.90967641,.0130434,64.7762,280.5545,56.7813,304.5723,0,U,40967,999,11349,.17791E-3,.1893E-4,0
SINOD-D 1,2015-058E,2026-06-16T14:38:52.570752,14.95902944,.0119003,64.7755,260.7192,53.3065,307.8913,0,U,40968,999,11657,.21697E-3,.2624E-4,0
SNAP-3 ALICE,2015-058G,2026-06-16T12:47:03.274656,15.59920827,.00283865,64.7502,106.1936,13.2096,346.9786,0,U,40970,999,11678,.11857653E-2,.98982E-3,0
LMRST-SAT,2015-058H,2026-06-16T13:40:39.047232,14.90587532,.0132038,64.7766,277.2387,58.8558,302.5425,0,U,40971,999,11346,.16643E-3,.1747E-4,0
SNAP-3 EDDIE,2015-058J,2026-06-16T12:33:30.696480,15.61204333,.00278768,64.7428,96.9558,17.1991,343.0093,0,U,40972,999,11892,.12322649E-2,.10815E-2,0
PROPCUBE 3,2015-058K,2026-06-16T16:10:27.024096,14.94255091,.0124005,64.7685,254.1395,60.1147,301.2218,0,U,40973,999,11472,.18907E-3,.2185E-4,0
BISONSAT,2015-058L,2026-06-16T15:17:53.882016,15.16178088,.0079003,64.7577,175.4219,47.4899,313.2863,0,U,40974,999,11553,.44993E-3,.9248E-4,0
SNAP-3 JIMI,2015-058M,2026-06-16T12:33:51.252768,15.02292927,.01061307,64.7636,221.8726,55.6297,305.4803,0,U,40975,999,11412,.24427636E-3,.3465E-4,0
PROPCUBE 1 (FLORA),2015-058N,2026-06-16T19:01:44.267808,14.89220796,.0130728,64.7756,296.4578,61.0768,300.3381,0,U,40976,999,11620,.18304E-3,.186E-4,0
SINOD-D 3,2015-058P,2026-06-16T15:19:34.124160,14.94013361,.011924,64.7733,277.5322,58.3455,302.9224,0,U,40977,999,11467,.22714E-3,.2614E-4,0
HORYU-4,2016-012D,2026-06-15T10:27:05.146272,15.94546005,.00051492,30.9849,91.8834,261.3375,98.6703,0,U,41340,999,57053,.9799184E-3,.392649E-2,.54782598E-4
RAVAN,2016-067B,2026-06-16T15:46:46.901856,15.54635153,.0004516,97.9887,57.1683,33.6993,326.4546,0,U,41849,999,52761,.63214E-3,.41884E-3,0
CELTEE 1,2016-067C,2026-06-16T21:04:08.834592,15.19680301,.0000917,98.0669,34.4239,125.9953,234.1365,0,U,41850,999,52583,.19637E-3,.4113E-4,0
OPTICUBE 04,2016-067D,2026-06-16T13:10:27.957216,15.09656156,.00168204,98.0694,19.7994,117.6470,242.6467,0,U,41851,999,52507,.12996702E-3,.2026E-4,0
AEROCUBE 8D,2016-067E,2026-06-16T13:33:19.634112,15.24390236,.0004668,98.0677,37.6889,124.6524,235.5152,0,U,41852,999,52597,.23333E-3,.5637E-4,0
AEROCUBE 8C,2016-067F,2026-06-16T14:09:27.393696,15.24638799,.0006624,98.0548,34.9442,70.6674,289.5277,0,U,41853,999,52597,.24932E-3,.6076E-4,0
CORVUS BC2,2017-042X,2026-06-16T09:32:41.160768,15.06292307,.0014273,97.4061,328.7777,113.0054,247.2680,0,U,42846,999,48694,.24808207E-3,.3593E-4,0
CORVUS BC1,2017-042Y,2026-06-16T17:23:17.674368,15.06464546,.001332,97.4099,329.9057,90.5628,269.7126,0,U,42847,999,48702,.2162E-3,.3137E-4,0
MAKERSAT 0,2017-073D,2026-06-16T15:46:42.185280,15.32084435,.0105113,97.4623,50.1724,274.9015,84.0232,0,U,43016,999,46638,.37379E-3,.13708E-3,0
